{
  "norad_id": 52485,
  "name": "STARLINK-3913",
  "history": [
    {
      "epoch": "2026-04-11T18:19:59.382336Z",
      "apogee_km": 540.5593056928574,
      "perigee_km": 538.9017846290371,
      "latitude_deg": 6.977443913738961e-06,
      "longitude_deg": 145.67008414788415,
      "height_km": 540.5057246513649,
      "semi_major_axis_km": 6917.867545160947,
      "eccentricity": 0.0001198,
      "inclination_deg": 53.217,
      "raan_deg": 260.6462,
      "arg_perigee_deg": 81.6238,
      "mean_anomaly_deg": 278.489,
      "mean_motion_rev_day": 15.08844202
    },
    {
      "epoch": "2026-04-13T03:43:05.359296Z",
      "apogee_km": 540.6008121202185,
      "perigee_km": 538.8855929028077,
      "latitude_deg": -1.5445923718506288e-06,
      "longitude_deg": -2.721799942946474,
      "height_km": 540.6813472283534,
      "semi_major_axis_km": 6917.880202511513,
      "eccentricity": 0.00012397,
      "inclination_deg": 53.2167,
      "raan_deg": 254.4003,
      "arg_perigee_deg": 92.8302,
      "mean_anomaly_deg": 267.2832,
      "mean_motion_rev_day": 15.08840061
    },
    {
      "epoch": "2026-04-14T16:16:57.359424Z",
      "apogee_km": 540.6180153523273,
      "perigee_km": 538.8622581350219,
      "latitude_deg": 3.7632397403221463e-05,
      "longitude_deg": 160.4712151319292,
      "height_km": 540.6266868888601,
      "semi_major_axis_km": 6917.877136743675,
      "eccentricity": 0.0001269,
      "inclination_deg": 53.217,
      "raan_deg": 247.5616,
      "arg_perigee_deg": 89.3973,
      "mean_anomaly_deg": 270.7165,
      "mean_motion_rev_day": 15.08841064
    },
    {
      "epoch": "2026-04-15T16:07:44.969664Z",
      "apogee_km": 540.6372301473648,
      "perigee_km": 538.8883850760003,
      "latitude_deg": 1.2977982764127184e-05,
      "longitude_deg": 157.3322792774455,
      "height_km": 540.6247614807219,
      "semi_major_axis_km": 6917.899807611682,
      "eccentricity": 0.0001264,
      "inclination_deg": 53.2161,
      "raan_deg": 243.1004,
      "arg_perigee_deg": 87.7884,
      "mean_anomaly_deg": 272.3253,
      "mean_motion_rev_day": 15.08833647
    },
    {
      "epoch": "2026-04-16T15:58:32.254176Z",
      "apogee_km": 540.6099497636678,
      "perigee_km": 538.9026137017354,
      "latitude_deg": -3.0529132962320365e-05,
      "longitude_deg": 154.19629040533349,
      "height_km": 540.6135814746785,
      "semi_major_axis_km": 6917.893281732701,
      "eccentricity": 0.0001234,
      "inclination_deg": 53.2172,
      "raan_deg": 238.6408,
      "arg_perigee_deg": 87.4108,
      "mean_anomaly_deg": 272.7025,
      "mean_motion_rev_day": 15.08835782
    },
    {
      "epoch": "2026-04-17T20:35:28.372128Z",
      "apogee_km": 540.5490938513622,
      "perigee_km": 538.9272671940407,
      "latitude_deg": -9.621965606749198e-06,
      "longitude_deg": 78.43418232202663,
      "height_km": 540.5784849925434,
      "semi_major_axis_km": 6917.875180522701,
      "eccentricity": 0.00011722,
      "inclination_deg": 53.2169,
      "raan_deg": 233.2877,
      "arg_perigee_deg": 86.0675,
      "mean_anomaly_deg": 274.0451,
      "mean_motion_rev_day": 15.08841704
    },
    {
      "epoch": "2026-04-18T14:04:42.830976Z",
      "apogee_km": 540.5102740984794,
      "perigee_km": 538.9606706646664,
      "latitude_deg": 4.5236558592669934e-05,
      "longitude_deg": 172.13399813930505,
      "height_km": 540.6173124656194,
      "semi_major_axis_km": 6917.872472381573,
      "eccentricity": 0.000112,
      "inclination_deg": 53.2165,
      "raan_deg": 230.0159,
      "arg_perigee_deg": 88.9577,
      "mean_anomaly_deg": 271.1544,
      "mean_motion_rev_day": 15.0884259
    },
    {
      "epoch": "2026-04-19T13:55:29.951328Z",
      "apogee_km": 540.4655357061683,
      "perigee_km": 538.9989474269569,
      "latitude_deg": 1.6209675596933368e-05,
      "longitude_deg": 168.9991032578104,
      "height_km": 540.5456803853843,
      "semi_major_axis_km": 6917.869241566563,
      "eccentricity": 0.000106,
      "inclination_deg": 53.2169,
      "raan_deg": 225.5567,
      "arg_perigee_deg": 83.5297,
      "mean_anomaly_deg": 276.5816,
      "mean_motion_rev_day": 15.08843647
    },
    {
      "epoch": "2026-04-20T13:46:17.571936Z",
      "apogee_km": 540.6802290952819,
      "perigee_km": 538.8281712631688,
      "latitude_deg": 5.4865393060605166e-05,
      "longitude_deg": 165.86056753022655,
      "height_km": 540.6041497338366,
      "semi_major_axis_km": 6917.891200179225,
      "eccentricity": 0.00013386,
      "inclination_deg": 53.2171,
      "raan_deg": 221.0959,
      "arg_perigee_deg": 87.1683,
      "mean_anomaly_deg": 272.9463,
      "mean_motion_rev_day": 15.08836463
    },
    {
      "epoch": "2026-04-21T13:37:04.155744Z",
      "apogee_km": 540.0729175332553,
      "perigee_km": 539.4157188080289,
      "latitude_deg": -3.5894949322841337e-06,
      "longitude_deg": 162.72639079452807,
      "height_km": 540.347034879794,
      "semi_major_axis_km": 6917.881318170642,
      "eccentricity": 4.75e-05,
      "inclination_deg": 53.2166,
      "raan_deg": 216.6352,
      "arg_perigee_deg": 333.8302,
      "mean_anomaly_deg": 26.2666,
      "mean_motion_rev_day": 15.08839696
    },
    {
      "epoch": "2026-04-22T13:27:51.696864Z",
      "apogee_km": 540.5771966764942,
      "perigee_km": 538.954256696813,
      "latitude_deg": -4.288377043374479e-05,
      "longitude_deg": 159.58562851659312,
      "height_km": 540.654668702864,
      "semi_major_axis_km": 6917.902726686653,
      "eccentricity": 0.0001173,
      "inclination_deg": 53.217,
      "raan_deg": 212.1719,
      "arg_perigee_deg": 89.507,
      "mean_anomaly_deg": 270.6056,
      "mean_motion_rev_day": 15.08832692
    },
    {
      "epoch": "2026-04-23T13:18:38.814624Z",
      "apogee_km": 540.5855560413547,
      "perigee_km": 538.9695312039639,
      "latitude_deg": 3.586057119322952e-05,
      "longitude_deg": 156.45352327684648,
      "height_km": 540.5573778648491,
      "semi_major_axis_km": 6917.914543622659,
      "eccentricity": 0.0001168,
      "inclination_deg": 53.2179,
      "raan_deg": 207.7154,
      "arg_perigee_deg": 81.7318,
      "mean_anomaly_deg": 278.3807,
      "mean_motion_rev_day": 15.08828826
    },
    {
      "epoch": "2026-04-24T13:09:25.756128Z",
      "apogee_km": 540.5210115909067,
      "perigee_km": 538.9783228641136,
      "latitude_deg": 3.6057944381749516e-05,
      "longitude_deg": 153.31839681274826,
      "height_km": 540.5895512582086,
      "semi_major_axis_km": 6917.88666722751,
      "eccentricity": 0.0001115,
      "inclination_deg": 53.2179,
      "raan_deg": 203.2552,
      "arg_perigee_deg": 85.821,
      "mean_anomaly_deg": 274.291,
      "mean_motion_rev_day": 15.08837946
    },
    {
      "epoch": "2026-04-25T17:46:20.356032Z",
      "apogee_km": 540.3518310582986,
      "perigee_km": 539.0097744045688,
      "latitude_deg": -2.654272726753139e-05,
      "longitude_deg": 77.56196708182873,
      "height_km": 540.3141621132447,
      "semi_major_axis_km": 6917.817802731433,
      "eccentricity": 9.7e-05,
      "inclination_deg": 53.2164,
      "raan_deg": 197.9015,
      "arg_perigee_deg": 66.9352,
      "mean_anomaly_deg": 293.1742,
      "mean_motion_rev_day": 15.08860476
    },
    {
      "epoch": "2026-04-26T17:37:09.946560Z",
      "apogee_km": 540.5274528292803,
      "perigee_km": 538.9963834407181,
      "latitude_deg": 1.4318227449544985e-05,
      "longitude_deg": 74.41480471161334,
      "height_km": 540.4908014780332,
      "semi_major_axis_km": 6917.898918134999,
      "eccentricity": 0.00011066,
      "inclination_deg": 53.2164,
      "raan_deg": 193.4403,
      "arg_perigee_deg": 77.3922,
      "mean_anomaly_deg": 282.7194,
      "mean_motion_rev_day": 15.08833938
    },
    {
      "epoch": "2026-04-27T11:06:24.223104Z",
      "apogee_km": 540.4792790217261,
      "perigee_km": 538.944900093662,
      "latitude_deg": -1.5278047009043192e-05,
      "longitude_deg": 168.11651978069563,
      "height_km": 540.6042253206874,
      "semi_major_axis_km": 6917.849089557694,
      "eccentricity": 0.0001109,
      "inclination_deg": 53.2154,
      "raan_deg": 190.1697,
      "arg_perigee_deg": 89.7231,
      "mean_anomaly_deg": 270.3888,
      "mean_motion_rev_day": 15.0885024
    },
    {
      "epoch": "2026-04-28T10:57:10.455264Z",
      "apogee_km": 540.5740566585328,
      "perigee_km": 538.877796668914,
      "latitude_deg": 2.804529535867404e-05,
      "longitude_deg": 164.98389112581233,
      "height_km": 540.5239621905763,
      "semi_major_axis_km": 6917.862926663723,
      "eccentricity": 0.0001226,
      "inclination_deg": 53.2167,
      "raan_deg": 185.709,
      "arg_perigee_deg": 83.3789,
      "mean_anomaly_deg": 276.7343,
      "mean_motion_rev_day": 15.08845713
    },
    {
      "epoch": "2026-04-29T13:58:44.874912Z",
      "apogee_km": 540.6075258249293,
      "perigee_km": 538.8905065157151,
      "latitude_deg": -5.763640014033865e-05,
      "longitude_deg": 113.42588502234602,
      "height_km": 540.5166758352653,
      "semi_major_axis_km": 6917.886016170321,
      "eccentricity": 0.0001241,
      "inclination_deg": 53.2179,
      "raan_deg": 180.6544,
      "arg_perigee_deg": 81.4057,
      "mean_anomaly_deg": 278.7075,
      "mean_motion_rev_day": 15.08838159
    },
    {
      "epoch": "2026-04-30T13:49:31.551168Z",
      "apogee_km": 540.6174653580774,
      "perigee_km": 538.8482893156461,
      "latitude_deg": -3.017461871872585e-05,
      "longitude_deg": 110.29248817694676,
      "height_km": 540.5133921011891,
      "semi_major_axis_km": 6917.8698773368615,
      "eccentricity": 0.00012787,
      "inclination_deg": 53.2168,
      "raan_deg": 176.1948,
      "arg_perigee_deg": 82.513,
      "mean_anomaly_deg": 277.6007,
      "mean_motion_rev_day": 15.08843439
    }
  ]
}